0 SL-8 DEB *
1 14344U 82037C   13281.85134091  .00000723  00000-0  22474-3 0  3732
2 14344 074.0603 201.7216 0017842 037.6200 017.9321 14.42719298579200
0 SL-8 DEB *
1 14344U 82037C   13283.94474797  .00000883  00000-0  27249-3 0  3747
2 14344 074.0602 197.8423 0017947 033.2400 090.6360 14.42725446579500
0 SL-8 DEB *
1 14344U 82037C   13286.16335785  .00000777  00000-0  24069-3 0  3757
2 14344 074.0602 193.7311 0018039 028.5103 093.7432 14.42729346579823
0 SL-8 DEB *
1 14344U 82037C   13288.17979093  .00001222  00000-0  37421-3 0  3769
2 14344 074.0599 189.9948 0018139 024.3779 126.6343 14.42734727580115
0 SL-8 DEB *
1 14344U 82037C   13290.19240108  .00000921  00000-0  28391-3 0  3774
2 14344 074.0595 186.2655 0018229 020.1095 139.8528 14.42738861580407
0 SL-8 DEB *
1 14344U 82037C   13292.46018713  .00000914  00000-0  28162-3 0  3780
2 14344 074.0591 182.0632 0018321 015.4276 038.3321 14.42743175580737
0 SL-8 DEB *
1 14344U 82037C   13294.83017721  .00000986  00000-0  30341-3 0  3793
2 14344 074.0590 177.6711 0018411 010.5188 107.6969 14.42748488581070
